start=new Date('2023-01-15T00:00:00.000Z').valueOf();
sats=[{"OBJECT_NAME":"STARLINK-3582","MEAN_MOTION_DOT":"0.00001433","CENTER_NAME":"EARTH","COUNTRY_CODE":"US","OBJECT_TYPE":"PAYLOAD","GP_ID":"223027499","OBJECT_ID":"2022-022X","FILE":"3745231","EPOCH":"2023-01-14T16:13:01.953984","ELEMENT_SET_NO":"999","BSTAR":"0.00010809000000","RA_OF_ASC_NODE":"131.7372","REF_FRAME":"TEME","ARG_OF_PERICENTER":"47.9763","APOAPSIS":"541.446","MEAN_ANOMALY":"312.1441","TLE_LINE2":"2 51873  53.2173 131.7372 0002485  47.9763 312.1441 15.08846150 49508","PERIOD":"95.437","DECAY_DATE":null,"MEAN_MOTION":"15.08846150","PERIAPSIS":"538.008","REV_AT_EPOCH":"4950","LAUNCH_DATE":"2022-03-03","NORAD_CAT_ID":"51873","MEAN_ELEMENT_THEORY":"SGP4","INCLINATION":"53.2173","SITE":"AFETR","SEMIMAJOR_AXIS":"6917.862","RCS_SIZE":"LARGE","TIME_SYSTEM":"UTC","EPHEMERIS_TYPE":"0","ECCENTRICITY":"0.00024850","MEAN_MOTION_DDOT":"0.0000000000000","TLE_LINE1":"1 51873U 22022X   23014.67571706  .00001433  00000-0  10809-3 0  9993","CLASSIFICATION_TYPE":"U"},{"REF_FRAME":"TEME","ARG_OF_PERICENTER":"33.6392","APOAPSIS":"541.187","BSTAR":"0.00044789000000","RA_OF_ASC_NODE":"132.0146","ELEMENT_SET_NO":"999","EPOCH":"2023-01-14T14:48:14.464512","OBJECT_ID":"2022-022Y","FILE":"3744786","OBJECT_TYPE":"PAYLOAD","COUNTRY_CODE":"US","GP_ID":"222999873","CENTER_NAME":"EARTH","OBJECT_NAME":"STARLINK-3574","MEAN_MOTION_DOT":"0.00006848","CLASSIFICATION_TYPE":"U","TLE_LINE1":"1 51874U 22022Y   23014.61683408  .00006848  00000-0  44789-3 0  9990","TIME_SYSTEM":"UTC","EPHEMERIS_TYPE":"0","ECCENTRICITY":"0.00021000","MEAN_MOTION_DDOT":"0.0000000000000","SEMIMAJOR_AXIS":"6917.870","RCS_SIZE":"LARGE","INCLINATION":"53.2145","SITE":"AFETR","MEAN_MOTION":"15.08843539","DECAY_DATE":null,"PERIAPSIS":"538.282","REV_AT_EPOCH":"4948","NORAD_CAT_ID":"51874","LAUNCH_DATE":"2022-03-03","MEAN_ELEMENT_THEORY":"SGP4","PERIOD":"95.437","MEAN_ANOMALY":"326.4733","TLE_LINE2":"2 51874  53.2145 132.0146 0002100  33.6392 326.4733 15.08843539 49482"},{"OBJECT_ID":"2022-022Z","FILE":"3744786","EPOCH":"2023-01-14T14:28:25.787136","ELEMENT_SET_NO":"999","BSTAR":"0.00013362000000","RA_OF_ASC_NODE":"132.0701","REF_FRAME":"TEME","ARG_OF_PERICENTER":"50.3904","APOAPSIS":"541.057","OBJECT_NAME":"STARLINK-3585","MEAN_MOTION_DOT":"0.00001839","CENTER_NAME":"EARTH","COUNTRY_CODE":"US","OBJECT_TYPE":"PAYLOAD","GP_ID":"222999868","INCLINATION":"53.2145","SITE":"AFETR","SEMIMAJOR_AXIS":"6917.913","RCS_SIZE":"LARGE","TIME_SYSTEM":"UTC","EPHEMERIS_TYPE":"0","MEAN_MOTION_DDOT":"0.0000000000000","ECCENTRICITY":"0.00018490","CLASSIFICATION_TYPE":"U","TLE_LINE1":"1 51875U 22022Z   23014.60307624  .00001839  00000-0  13362-3 0  9991","MEAN_ANOMALY":"309.7251","TLE_LINE2":"2 51875  53.2145 132.0701 0001849  50.3904 309.7251 15.08829463 49494","PERIOD":"95.438","DECAY_DATE":null,"MEAN_MOTION":"15.08829463","REV_AT_EPOCH":"4949","PERIAPSIS":"538.498","LAUNCH_DATE":"2022-03-03","NORAD_CAT_ID":"51875","MEAN_ELEMENT_THEORY":"SGP4"},{"RCS_SIZE":"LARGE","SEMIMAJOR_AXIS":"6917.881","SITE":"AFETR","INCLINATION":"53.2168","TLE_LINE1":"1 51876U 22022AA  23014.61316335  .00004918  00000-0  32689-3 0  9996","CLASSIFICATION_TYPE":"U","ECCENTRICITY":"0.00029090","MEAN_MOTION_DDOT":"0.0000000000000","TIME_SYSTEM":"UTC","EPHEMERIS_TYPE":"0","PERIOD":"95.438","MEAN_ANOMALY":"327.4273","TLE_LINE2":"2 51876  53.2168 132.0139 0002909  32.6899 327.4273 15.08839810 49497","PERIAPSIS":"537.734","REV_AT_EPOCH":"4949","LAUNCH_DATE":"2022-03-03","MEAN_ELEMENT_THEORY":"SGP4","NORAD_CAT_ID":"51876","DECAY_DATE":null,"MEAN_MOTION":"15.08839810","ELEMENT_SET_NO":"999","EPOCH":"2023-01-14T14:42:57.313440","OBJECT_ID":"2022-022AA","FILE":"3745176","APOAPSIS":"541.758","REF_FRAME":"TEME","ARG_OF_PERICENTER":"32.6899","BSTAR":"0.00032689000000","RA_OF_ASC_NODE":"132.0139","MEAN_MOTION_DOT":"0.00004918","OBJECT_NAME":"STARLINK-3583","GP_ID":"223026235","OBJECT_TYPE":"PAYLOAD","COUNTRY_CODE":"US","CENTER_NAME":"EARTH"},{"ARG_OF_PERICENTER":"79.1557","REF_FRAME":"TEME","APOAPSIS":"540.514","RA_OF_ASC_NODE":"122.0997","BSTAR":"0.00029732000000","EPOCH":"2023-01-14T14:17:46.649184","ELEMENT_SET_NO":"999","FILE":"3745177","OBJECT_ID":"2022-022AB","OBJECT_TYPE":"PAYLOAD","COUNTRY_CODE":"US","GP_ID":"223026246","CENTER_NAME":"EARTH","OBJECT_NAME":"STARLINK-3556","MEAN_MOTION_DOT":"0.00004448","TLE_LINE1":"1 51877U 22022AB  23014.59567881  .00004448  00000-0  29732-3 0  9991","CLASSIFICATION_TYPE":"U","EPHEMERIS_TYPE":"0","TIME_SYSTEM":"UTC","MEAN_MOTION_DDOT":"0.0000000000000","ECCENTRICITY":"0.00011430","SEMIMAJOR_AXIS":"6917.859","RCS_SIZE":"LARGE","INCLINATION":"53.2155","SITE":"AFETR","DECAY_DATE":null,"MEAN_MOTION":"15.08847089","MEAN_ELEMENT_THEORY":"SGP4","LAUNCH_DATE":"2022-03-03","NORAD_CAT_ID":"51877","REV_AT_EPOCH":"4962","PERIAPSIS":"538.933","PERIOD":"95.437","TLE_LINE2":"2 51877  53.2155 122.0997 0001143  79.1557 280.9564 15.08847089 49629","MEAN_ANOMALY":"280.9564"},{"DECAY_DATE":null,"MEAN_MOTION":"15.08843045","MEAN_ELEMENT_THEORY":"SGP4","LAUNCH_DATE":"2022-03-03","NORAD_CAT_ID":"51878","PERIAPSIS":"538.423","REV_AT_EPOCH":"4949","TLE_LINE2":"2 51878  53.2142 132.0594 0001898  50.5134 309.6026 15.08843045 49496","MEAN_ANOMALY":"309.6026","PERIOD":"95.437","EPHEMERIS_TYPE":"0","TIME_SYSTEM":"UTC","MEAN_MOTION_DDOT":"0.0000000000000","ECCENTRICITY":"0.00018980","TLE_LINE1":"1 51878U 22022AC  23014.60580434  .00017623  00000-0  11225-2 0  9999","CLASSIFICATION_TYPE":"U","INCLINATION":"53.2142","SITE":"AFETR","SEMIMAJOR_AXIS":"6917.871","RCS_SIZE":"LARGE","CENTER_NAME":"EARTH","OBJECT_TYPE":"PAYLOAD","COUNTRY_CODE":"US","GP_ID":"222999605","OBJECT_NAME":"STARLINK-3575","MEAN_MOTION_DOT":"0.00017623","RA_OF_ASC_NODE":"132.0594","BSTAR":"0.00112250000000","ARG_OF_PERICENTER":"50.5134","REF_FRAME":"TEME","APOAPSIS":"541.049","FILE":"3744786","OBJECT_ID":"2022-022AC","EPOCH":"2023-01-14T14:32:21.494976","ELEMENT_SET_NO":"999"},{"MEAN_MOTION_DOT":"0.00011437","OBJECT_NAME":"STARLINK-3572","GP_ID":"223026480","OBJECT_TYPE":"PAYLOAD","COUNTRY_CODE":"US","CENTER_NAME":"EARTH","ELEMENT_SET_NO":"999","EPOCH":"2023-01-14T15:42:33.614208","OBJECT_ID":"2022-022AD","FILE":"3745177","APOAPSIS":"540.709","REF_FRAME":"TEME","ARG_OF_PERICENTER":"56.4273","BSTAR":"0.00073507000000","RA_OF_ASC_NODE":"121.8322","PERIOD":"95.436","MEAN_ANOMALY":"303.6861","TLE_LINE2":"2 51879  53.2171 121.8322 0001483  56.4273 303.6861 15.08860537 49635","PERIAPSIS":"538.657","REV_AT_EPOCH":"4963","LAUNCH_DATE":"2022-03-03","NORAD_CAT_ID":"51879","MEAN_ELEMENT_THEORY":"SGP4","MEAN_MOTION":"15.08860537","DECAY_DATE":null,"RCS_SIZE":"LARGE","SEMIMAJOR_AXIS":"6917.818","SITE":"AFETR","INCLINATION":"53.2171","CLASSIFICATION_TYPE":"U","TLE_LINE1":"1 51879U 22022AD  23014.65455572  .00011437  00000-0  73507-3 0  9998","MEAN_MOTION_DDOT":"0.0000000000000","ECCENTRICITY":"0.00014830","TIME_SYSTEM":"UTC","EPHEMERIS_TYPE":"0"},{"MEAN_MOTION_DOT":"0.00000027","OBJECT_NAME":"STARLINK-3566","GP_ID":"222991686","OBJECT_TYPE":"PAYLOAD","COUNTRY_CODE":"US","CENTER_NAME":"EARTH","EPOCH":"2023-01-14T05:43:48.900288","ELEMENT_SET_NO":"999","OBJECT_ID":"2022-022AE","FILE":"3744377","APOAPSIS":"541.603","REF_FRAME":"TEME","ARG_OF_PERICENTER":"66.4663","BSTAR":"0.00001982400000","RA_OF_ASC_NODE":"133.6954","PERIOD":"95.438","TLE_LINE2":"2 51880  53.2134 133.6954 0002657  66.4663 293.6608 15.08833454 49439","MEAN_ANOMALY":"293.6608","REV_AT_EPOCH":"4943","PERIAPSIS":"537.927","NORAD_CAT_ID":"51880","LAUNCH_DATE":"2022-03-03","MEAN_ELEMENT_THEORY":"SGP4","DECAY_DATE":null,"MEAN_MOTION":"15.08833454","RCS_SIZE":"LARGE","SEMIMAJOR_AXIS":"6917.900","SITE":"AFETR","INCLINATION":"53.2134","CLASSIFICATION_TYPE":"U","TLE_LINE1":"1 51880U 22022AE  23014.23876042  .00000027  00000-0  19824-4 0  9999","MEAN_MOTION_DDOT":"0.0000000000000","ECCENTRICITY":"0.00026570","TIME_SYSTEM":"UTC","EPHEMERIS_TYPE":"0"},{"APOAPSIS":"541.333","REF_FRAME":"TEME","ARG_OF_PERICENTER":"38.7789","BSTAR":"0.00036635000000","RA_OF_ASC_NODE":"122.1691","EPOCH":"2023-01-14T13:56:34.185408","ELEMENT_SET_NO":"999","OBJECT_ID":"2022-022AF","FILE":"3744764","GP_ID":"222999425","COUNTRY_CODE":"US","OBJECT_TYPE":"PAYLOAD","CENTER_NAME":"EARTH","MEAN_MOTION_DOT":"0.00005548","OBJECT_NAME":"STARLINK-3504","TLE_LINE1":"1 51881U 22022AF  23014.58095122  .00005548  00000-0  36635-3 0  9991","CLASSIFICATION_TYPE":"U","MEAN_MOTION_DDOT":"0.0000000000000","ECCENTRICITY":"0.00023290","TIME_SYSTEM":"UTC","EPHEMERIS_TYPE":"0","RCS_SIZE":"LARGE","SEMIMAJOR_AXIS":"6917.857","SITE":"AFETR","INCLINATION":"53.2158","PERIAPSIS":"538.111","REV_AT_EPOCH":"4967","MEAN_ELEMENT_THEORY":"SGP4","LAUNCH_DATE":"2022-03-03","NORAD_CAT_ID":"51881","DECAY_DATE":null,"MEAN_MOTION":"15.08847619","PERIOD":"95.437","TLE_LINE2":"2 51881  53.2158 122.1691 0002329  38.7789 321.3370 15.08847619 49673","MEAN_ANOMALY":"321.3370"},{"CENTER_NAME":"EARTH","GP_ID":"222989801","OBJECT_TYPE":"PAYLOAD","COUNTRY_CODE":"US","MEAN_MOTION_DOT":"0.00008702","OBJECT_NAME":"STARLINK-3570","BSTAR":"0.00056405000000","RA_OF_ASC_NODE":"123.5891","APOAPSIS":"541.946","REF_FRAME":"TEME","ARG_OF_PERICENTER":"37.1379","OBJECT_ID":"2022-022AG","FILE":"3744280","EPOCH":"2023-01-14T06:15:33.034464","ELEMENT_SET_NO":"999","PERIAPSIS":"537.507","REV_AT_EPOCH":"4962","LAUNCH_DATE":"2022-03-03","NORAD_CAT_ID":"51882","MEAN_ELEMENT_THEORY":"SGP4","MEAN_MOTION":"15.08846137","DECAY_DATE":null,"TLE_LINE2":"2 51882  53.2140 123.5891 0003208  37.1379 322.9835 15.08846137 49629","MEAN_ANOMALY":"322.9835","PERIOD":"95.437","ECCENTRICITY":"0.00032080","MEAN_MOTION_DDOT":"0.0000000000000","TIME_SYSTEM":"UTC","EPHEMERIS_TYPE":"0","CLASSIFICATION_TYPE":"U","TLE_LINE1":"1 51882U 22022AG  23014.26079901  .00008702  00000-0  56405-3 0  9996","SITE":"AFETR","INCLINATION":"53.2140","RCS_SIZE":"LARGE","SEMIMAJOR_AXIS":"6917.862"}];
